#aV2012  5  1  0  0  0.00000000     288 DD+AD WGS84 FIT  NGA
## 1686 172800.00000000   300.00000000 56048 0.0000000000000
+   31     1  2  3  4  5  6  7  8  9 10 11 12 13 14 15 16 17
+         18 19 20 21 22 23 25 26 27 28 29 30 31 32  0  0  0
+          0  0  0  0  0  0  0  0  0  0  0  0  0  0  0  0  0
+          0  0  0  0  0  0  0  0  0  0  0  0  0  0  0  0  0
+          0  0  0  0  0  0  0  0  0  0  0  0  0  0  0  0  0
++         2  2  2  2  2  2  2  2  2  2  2  2  2  2  2  2  2
++         2  2  2  2  2  2  2  2  2  2  2  2  2  2  2  0  0
++         0  0  0  0  0  0  0  0  0  0  0  0  0  0  0  0  0
++         0  0  0  0  0  0  0  0  0  0  0  0  0  0  0  0  0
++         0  0  0  0  0  0  0  0  0  0  0  0  0  0  0  0  0
%c cc cc ccc ccc cccc cccc cccc cccc ccccc ccccc ccccc ccccc
%c cc cc ccc ccc cccc cccc cccc cccc ccccc ccccc ccccc ccccc
%f  0.0000000  0.000000000  0.00000000000  0.000000000000000
%f  0.0000000  0.000000000  0.00000000000  0.000000000000000
%i    0    0    0    0      0      0      0      0         0
%i    0    0    0    0      0      0      0      0         0
/*      NGA, ST. LOUIS,MO.                                  
/*   EPHEMERIS COMPUTED FROM  1 DAYS OF DATA
/*   EPOCHA SMOOTHER  
/* CCCCCCCCCCCCCCCCCCCCCCCCCCCCCCCCCCCCCCCCCCCCCCCCCCCCCCCCC
*  2012  5  1 16 35  0.00000000                                                 
P  1 -16691.005432  -2421.236999  20517.260398    253.559644                    
V  1  -9489.667132 -24293.639327 -10553.710242      0.031194                    
P  2  13620.447371  22693.543100  -4298.528031    388.689368                    
V  2   -493.951377   6301.074999  30306.520501      0.013642                    
P  3 -18782.959331 -11356.504942 -15612.748630     43.177803                    
V  3  18941.832083  -2556.658527 -21299.622530      0.049406                    
P  4   5705.267560  24941.728275   6227.126817    170.224617                    
V  4  -6679.099025  -6193.839445  30070.161029      0.115557                    
P  5   9716.219463  12441.368708 -21368.056265   -310.794834                    
V  5 -16671.743369  21410.930863   5013.655724     -0.039799                    
P  6 -14862.916133 -13642.263930 -17294.427517     28.524913                    
V  6  22248.669411   -571.345508 -18234.731960     -0.018444                    
P  7 -10600.285575  11917.764847 -21170.762749     77.400057                    
V  7 -10900.813635 -24643.108740  -8652.072052      0.033443                    
P  8  -2570.838500  22028.877058 -14095.756602      1.143413                    
V  8  -7063.842786 -16832.839923 -25457.108013      0.001315                    
P  9  16782.480046   7380.614159  18649.570078    155.265007                    
V  9   8867.706239  23205.569671 -16706.609758      0.026289                    
P 10  -6052.074190  22506.108753 -12612.753034    -36.994179                    
V 10 -11996.741101  10682.713403  25715.886908     -0.010981                    
P 11 -20938.528739  -7312.517595  14451.858880   -257.004941                    
V 11  -9242.750832 -17100.880491 -21159.524808     -0.036994                    
P 12  18537.445616  -3314.316944  18647.151284     66.569724                    
V 12 -13648.725381  19422.921518  17209.558392      0.021119                    
P 13 -19836.537894   6902.120078 -16462.018268    210.069311                    
V 13 -19817.716667  -5529.879028  21662.532964     -0.023436                    
P 14   1888.656690 -14803.411606  22148.530859    201.631566                    
V 14  27175.009425   5065.500162    938.201251      0.010097                    
P 15  26481.302761   3126.382139   -740.819025    -91.330716                    
V 15  -1226.875894   3016.273298 -31257.374196      0.000030                    
P 16  -8531.509544 -12576.799241 -21738.103564   -233.364645                    
V 16  17857.940029 -21057.861231   5481.868645     -0.013518                    
P 17  -4090.292624  14769.939879  21858.348558    131.923158                    
V 17 -26970.426489  -4496.636697  -2255.632472     -0.027027                    
P 18  17009.607252 -20019.131943  -1827.001150    193.640223                    
V 18   1579.280559   4702.323105 -31183.730035      0.018050                    
P 19 -25669.513598  -7207.130378  -2502.461431   -261.033684                    
V 19   3543.071879  -1805.213637 -31268.458426     -0.037634                    
P 20 -19753.198752   8998.059340  15103.179808     63.267905                    
V 20   8770.730213 -17710.527912  21858.145002      0.000705                    
P 21   8186.384612 -16276.653819 -18639.924652   -220.886106                    
V 21  11668.397793  22204.543787 -14486.855215     -0.024687                    
P 22   6987.957112 -23001.769610  11336.024368    143.585619                    
V 22  11308.246437  -9270.308013 -26320.016242      0.001976                    
P 23 -25949.704924   1054.374627  -6404.337197    209.490293                    
V 23  -7698.788236  -3464.152306  30112.071847     -0.036501                    
P 25  19033.976251 -16648.070457   7992.466467     33.527029                    
V 25  -4055.987040   9673.138712  29753.355275      0.003927                    
P 26  19380.560653  13186.559149 -13462.356444   -379.684539                    
V 26 -15813.691866  -2016.647923 -25591.750901     -0.523475                    
P 27  17796.731069  13049.048979  15743.037909    383.318023                    
V 27   7032.765219  17300.710186 -22741.895301      0.040030                    
P 28  -9806.969106  22590.228172  10199.985858    139.412965                    
V 28  -9346.187156   8096.217142 -28678.892646      0.040882                    
P 29  21896.981610  -6025.093857 -13664.292872    308.683016                    
V 29  16890.460232   5009.688931  24778.263490      0.036727                    
P 30  -1876.911302 -20361.509003 -17304.152137   -158.562132                    
V 30  12411.303645 -17378.452644  19513.473157     -0.193688                    
P 31  -6030.842406 -25117.146404   5782.933533    237.367760                    
V 31   4794.456278   5749.214703  31226.401157      0.042171                    
P 32 -17771.313664  -1244.795591  19763.251749   -439.066442                    
V 32  15452.564009 -19466.954483  13276.630653     -0.041977                    
EOF
